[
    {
        "CCSDS_OMM_VERS": "3.0",
        "COMMENT": "GENERATED VIA SPACE-TRACK.ORG API",
        "CREATION_DATE": "2025-05-03T02:26:48",
        "ORIGINATOR": "18 SPCS",
        "OBJECT_NAME": "GALILEO 30 (10E)",
        "OBJECT_ID": "2024-079C",
        "CENTER_NAME": "EARTH",
        "REF_FRAME": "TEME",
        "TIME_SYSTEM": "UTC",
        "MEAN_ELEMENT_THEORY": "SGP4",
        "EPOCH": "2025-05-02T09:29:35.529504",
        "MEAN_MOTION": "1.70474469",
        "ECCENTRICITY": "0.00006200",
        "INCLINATION": "54.8655",
        "RA_OF_ASC_NODE": "112.5704",
        "ARG_OF_PERICENTER": "341.4651",
        "MEAN_ANOMALY": "18.5154",
        "EPHEMERIS_TYPE": "0",
        "CLASSIFICATION_TYPE": "U",
        "NORAD_CAT_ID": "59600",
        "ELEMENT_SET_NO": "999",
        "REV_AT_EPOCH": "636",
        "BSTAR": "0.00000000000000",
        "MEAN_MOTION_DOT": "0.00000037",
        "MEAN_MOTION_DDOT": "0.0000000000000",
        "SEMIMAJOR_AXIS": "29600.266",
        "PERIOD": "844.701",
        "APOAPSIS": "23223.966",
        "PERIAPSIS": "23220.296",
        "OBJECT_TYPE": "PAYLOAD",
        "RCS_SIZE": "LARGE",
        "COUNTRY_CODE": "ESA",
        "LAUNCH_DATE": "2024-04-28",
        "SITE": "AFETR",
        "DECAY_DATE": null,
        "FILE": "4717276",
        "GP_ID": "286726029",
        "TLE_LINE0": "0 GALILEO 30 (10E)",
        "TLE_LINE1": "1 59600U 24079C   25122.39555011  .00000037  00000-0  00000-0 0  9993",
        "TLE_LINE2": "2 59600  54.8655 112.5704 0000620 341.4651  18.5154  1.70474469  6368"
    }
]